{"type":"FeatureCollection","features":[{"type":"Feature","properties":{"ncirco":1,"name":"Centro – Crocetta","over65_pct":26.1,"risk_01":0.649,"risk_04":0.692,"risk_07":0.656,"risk_10":0.611,"risk_13":0.611,"risk_avg":0.645,"risk_clear":0.674,"label_01":"C.1\n0.65","label_04":"C.1\n0.69","label_07":"C.1\n0.66","label_10":"C.1\n0.61","label_13":"C.1\n0.61","label_avg":"C.1\n0.65","label_clear":"C.1\n0.67","lst_01":24.7,"lst_04":29.3,"lst_07":25.4,"lst_10":20.7,"lst_13":20.7},"geometry":{"type":"Polygon","coordinates":[[[7.6801,45.0623],[7.67715,45.05797],[7.67331,45.05443],[7.66678,45.04395],[7.65973,45.04804],[7.6538,45.0499],[7.65567,45.05252],[7.65458,45.05495],[7.65517,45.05746],[7.67133,45.08076],[7.68234,45.07711],[7.68224,45.07616],[7.68378,45.07564],[7.68478,45.07629],[7.68962,45.07472],[7.69951,45.06498],[7.69516,45.06171],[7.69207,45.058],[7.6801,45.0623]]]}},{"type":"Feature","properties":{"ncirco":2,"name":"Santa Rita – Mirafiori","over65_pct":28.6,"risk_01":0.573,"risk_04":0.597,"risk_07":0.56,"risk_10":0.462,"risk_13":0.462,"risk_avg":0.532,"risk_clear":0.579,"label_01":"C.2\n0.57","label_04":"C.2\n0.60","label_07":"C.2\n0.56","label_10":"C.2\n0.46","label_13":"C.2\n0.46","label_avg":"C.2\n0.53","label_clear":"C.2\n0.58","lst_01":26.4,"lst_04":28.9,"lst_07":25.1,"lst_10":-1.4,"lst_13":8.7},"geometry":{"type":"Polygon","coordinates":[[[7.66206,45.04671],[7.63507,45.02282],[7.64014,45.02107],[7.64356,45.01846],[7.64791,45.01751],[7.65043,45.02189],[7.65797,45.01938],[7.65889,45.01626],[7.65512,45.00731],[7.65255,45.00806],[7.65209,45.00892],[7.64621,45.00706],[7.64239,45.00698],[7.63904,45.00884],[7.63662,45.0081],[7.63353,45.01012],[7.63152,45.01039],[7.62901,45.01036],[7.62757,45.00833],[7.62415,45.00813],[7.61436,45.01118],[7.61005,45.00979],[7.60803,45.01109],[7.60109,45.01351],[7.59824,45.0121],[7.5964,45.01228],[7.59663,45.01455],[7.59493,45.01493],[7.59414,45.01408],[7.59312,45.01403],[7.58976,45.01638],[7.59238,45.01726],[7.59199,45.01982],[7.60051,45.01878],[7.60735,45.02978],[7.60155,45.0283],[7.5988,45.03004],[7.59774,45.02995],[7.58414,45.03616],[7.58106,45.03829],[7.57783,45.04183],[7.58031,45.0443],[7.58215,45.04371],[7.58217,45.04306],[7.58392,45.04208],[7.58671,45.04485],[7.59523,45.04045],[7.61161,45.03375],[7.61459,45.03986],[7.61644,45.03901],[7.61815,45.04392],[7.61935,45.04487],[7.62035,45.04461],[7.6212,45.04592],[7.61789,45.04677],[7.61872,45.04833],[7.61738,45.04893],[7.62276,45.05223],[7.62509,45.05743],[7.64193,45.05404],[7.6461,45.05398],[7.64919,45.05466],[7.65507,45.05329],[7.65567,45.05252],[7.6538,45.0499],[7.65953,45.04813],[7.66206,45.04671]]]}},{"type":"Feature","properties":{"ncirco":3,"name":"San Paolo – Pozzo Strada","over65_pct":26.8,"risk_01":0.579,"risk_04":0.74,"risk_07":0.698,"risk_10":0.574,"risk_13":0.574,"risk_avg":0.633,"risk_clear":0.719,"label_01":"C.3\n0.58","label_04":"C.3\n0.74","label_07":"C.3\n0.70","label_10":"C.3\n0.57","label_13":"C.3\n0.57","label_avg":"C.3\n0.63","label_clear":"C.3\n0.72","lst_01":15.5,"lst_04":29.3,"lst_07":25.7,"lst_10":12.6,"lst_13":14.6},"geometry":{"type":"Polygon","coordinates":[[[7.6035,45.07114],[7.60557,45.07397],[7.66855,45.07655],[7.65517,45.05746],[7.65457,45.05508],[7.65507,45.05329],[7.64919,45.05466],[7.6461,45.05398],[7.64193,45.05404],[7.63012,45.05633],[7.62509,45.05743],[7.62508,45.05966],[7.6186,45.05898],[7.60761,45.06056],[7.60934,45.06503],[7.6141,45.0662],[7.60947,45.06806],[7.60841,45.07036],[7.6035,45.07114]]]}},{"type":"Feature","properties":{"ncirco":4,"name":"San Donato – Parella","over65_pct":25.3,"risk_01":0.534,"risk_04":0.637,"risk_07":0.604,"risk_10":0.507,"risk_13":0.512,"risk_avg":0.559,"risk_clear":0.621,"label_01":"C.4\n0.53","label_04":"C.4\n0.64","label_07":"C.4\n0.60","label_10":"C.4\n0.51","label_13":"C.4\n0.51","label_avg":"C.4\n0.56","label_clear":"C.4\n0.62","lst_01":18.5,"lst_04":28.1,"lst_07":25.0,"lst_10":16.1,"lst_13":16.5},"geometry":{"type":"Polygon","coordinates":[[[7.66855,45.07655],[7.64312,45.07549],[7.60557,45.07397],[7.61141,45.08252],[7.61121,45.08629],[7.61333,45.08876],[7.6154,45.08896],[7.61829,45.09133],[7.61962,45.09512],[7.61864,45.09673],[7.61479,45.09947],[7.61688,45.09976],[7.6324,45.09364],[7.65149,45.08733],[7.65441,45.09168],[7.66285,45.09194],[7.67771,45.08989],[7.66855,45.07655]]]}},{"type":"Feature","properties":{"ncirco":5,"name":"Borgo Vittoria – Lucento","over65_pct":25.5,"risk_01":0.557,"risk_04":0.604,"risk_07":0.58,"risk_10":0.516,"risk_13":0.503,"risk_avg":0.552,"risk_clear":0.592,"label_01":"C.5\n0.56","label_04":"C.5\n0.60","label_07":"C.5\n0.58","label_10":"C.5\n0.52","label_13":"C.5\n0.50","label_avg":"C.5\n0.55","label_clear":"C.5\n0.59","lst_01":22.8,"lst_04":27.1,"lst_07":24.9,"lst_10":19.1,"lst_13":17.9},"geometry":{"type":"Polygon","coordinates":[[[7.61479,45.09947],[7.61178,45.10714],[7.61428,45.10815],[7.62263,45.10841],[7.62288,45.11382],[7.64612,45.11204],[7.65447,45.1128],[7.65463,45.11489],[7.65303,45.11636],[7.65261,45.12323],[7.65417,45.12447],[7.65612,45.12248],[7.6605,45.12005],[7.66519,45.11969],[7.67337,45.12257],[7.67746,45.11889],[7.67701,45.11809],[7.67886,45.1168],[7.68278,45.11662],[7.68594,45.11735],[7.69111,45.11462],[7.69774,45.11413],[7.69675,45.10996],[7.6948,45.10688],[7.68104,45.09392],[7.67886,45.09147],[7.67935,45.09105],[7.67862,45.0901],[7.67771,45.08989],[7.66285,45.09194],[7.65441,45.09168],[7.65149,45.08733],[7.6324,45.09364],[7.61688,45.09976],[7.61479,45.09947]]]}},{"type":"Feature","properties":{"ncirco":6,"name":"Barriera di Milano – Rebaudengo","over65_pct":23.2,"risk_01":0.471,"risk_04":0.461,"risk_07":0.443,"risk_10":0.384,"risk_13":0.401,"risk_avg":0.431,"risk_clear":0.452,"label_01":"C.6\n0.47","label_04":"C.6\n0.46","label_07":"C.6\n0.44","label_10":"C.6\n0.38","label_13":"C.6\n0.40","label_avg":"C.6\n0.43","label_clear":"C.6\n0.45","lst_01":27.2,"lst_04":26.1,"lst_07":24.3,"lst_10":17.9,"lst_13":19.8},"geometry":{"type":"MultiPolygon","coordinates":[[[[7.65419,45.1245],[7.65709,45.12817],[7.65573,45.12963],[7.65531,45.12913],[7.6546,45.12955],[7.6553,45.13047],[7.65433,45.13147],[7.65572,45.13326],[7.65287,45.13502],[7.66078,45.13508],[7.6634,45.13402],[7.66372,45.13527],[7.6611,45.13617],[7.66244,45.13918],[7.66402,45.14019],[7.66652,45.139],[7.66637,45.13847],[7.67027,45.13767],[7.67171,45.13817],[7.67515,45.1371],[7.67638,45.13727],[7.67802,45.13855],[7.67919,45.13779],[7.68056,45.13883],[7.6834,45.13719],[7.68361,45.1358],[7.68583,45.13516],[7.68661,45.13399],[7.69015,45.13301],[7.69061,45.13458],[7.69388,45.13446],[7.69422,45.13283],[7.6966,45.13234],[7.69675,45.1309],[7.70948,45.13257],[7.70986,45.13342],[7.71115,45.13314],[7.71203,45.13695],[7.71317,45.13753],[7.71435,45.13706],[7.71667,45.13807],[7.71975,45.13805],[7.72224,45.13698],[7.72376,45.13719],[7.72479,45.13673],[7.72285,45.13162],[7.72123,45.13135],[7.72094,45.13052],[7.71811,45.1305],[7.71736,45.12731],[7.71953,45.12657],[7.72125,45.12512],[7.72242,45.12625],[7.72491,45.12695],[7.72962,45.12522],[7.72887,45.12429],[7.73043,45.12367],[7.73656,45.12352],[7.73511,45.11957],[7.73856,45.11889],[7.73847,45.11823],[7.73695,45.11727],[7.73658,45.11287],[7.73989,45.11288],[7.73997,45.10954],[7.74384,45.10819],[7.74433,45.10738],[7.74394,45.10673],[7.75236,45.10264],[7.75093,45.09731],[7.74162,45.09261],[7.74244,45.09197],[7.74137,45.09143],[7.73608,45.09115],[7.72731,45.09399],[7.72439,45.09412],[7.72108,45.09192],[7.7199,45.08896],[7.71875,45.08905],[7.71357,45.08538],[7.70063,45.07963],[7.69579,45.08503],[7.68874,45.0888],[7.67862,45.0901],[7.67935,45.09105],[7.67886,45.09147],[7.68104,45.09392],[7.6948,45.10688],[7.69675,45.10996],[7.69774,45.11413],[7.69111,45.11462],[7.68594,45.11735],[7.68278,45.11662],[7.67886,45.1168],[7.67701,45.11809],[7.67746,45.11889],[7.67337,45.12257],[7.66519,45.11969],[7.6605,45.12005],[7.65612,45.12248],[7.65419,45.1245]]],[[[7.74946,45.12203],[7.7482,45.12044],[7.74338,45.11729],[7.74044,45.11947],[7.7431,45.12129],[7.74286,45.12225],[7.74599,45.12469],[7.74704,45.1239],[7.74835,45.12464],[7.74928,45.12371],[7.74946,45.12203]]]]}},{"type":"Feature","properties":{"ncirco":7,"name":"Aurora – Vanchiglia","over65_pct":24.5,"risk_01":0.43,"risk_04":0.432,"risk_07":0.403,"risk_10":0.321,"risk_13":0.36,"risk_avg":0.388,"risk_clear":0.417,"label_01":"C.7\n0.43","label_04":"C.7\n0.43","label_07":"C.7\n0.40","label_10":"C.7\n0.32","label_13":"C.7\n0.36","label_avg":"C.7\n0.39","label_clear":"C.7\n0.42","lst_01":27.4,"lst_04":27.6,"lst_07":24.4,"lst_10":15.5,"lst_13":19.8},"geometry":{"type":"Polygon","coordinates":[[[7.67133,45.08076],[7.67771,45.08989],[7.67862,45.0901],[7.68874,45.0888],[7.69579,45.08503],[7.70063,45.07963],[7.71357,45.08538],[7.71875,45.08905],[7.7199,45.08896],[7.72051,45.09101],[7.72184,45.09266],[7.7232,45.09372],[7.72583,45.09421],[7.73608,45.09115],[7.74032,45.09117],[7.74244,45.09197],[7.74385,45.09084],[7.74458,45.08909],[7.74656,45.08797],[7.74704,45.08653],[7.75079,45.0836],[7.75461,45.08318],[7.75692,45.08211],[7.76446,45.08258],[7.7669,45.08097],[7.76896,45.08167],[7.76903,45.08067],[7.76738,45.08018],[7.76799,45.07912],[7.77334,45.07787],[7.75579,45.05775],[7.74817,45.05114],[7.73396,45.0391],[7.72683,45.03792],[7.72595,45.03837],[7.72623,45.04008],[7.72475,45.04072],[7.72367,45.0421],[7.72126,45.0422],[7.72127,45.04374],[7.72259,45.04431],[7.72269,45.04666],[7.72069,45.05073],[7.72184,45.05118],[7.722,45.05197],[7.72041,45.05325],[7.72244,45.05345],[7.72282,45.05423],[7.72157,45.05521],[7.72136,45.05655],[7.71949,45.0586],[7.71801,45.05894],[7.71595,45.06082],[7.71535,45.06311],[7.71296,45.06401],[7.71186,45.06376],[7.70827,45.06827],[7.7039,45.06707],[7.69951,45.06498],[7.68962,45.07472],[7.68478,45.07629],[7.68378,45.07564],[7.68224,45.07616],[7.68234,45.07711],[7.67133,45.08076]]]}},{"type":"Feature","properties":{"ncirco":8,"name":"San Salvario – Lingotto – Borgo Po","over65_pct":27.3,"risk_01":0.458,"risk_04":0.463,"risk_07":0.428,"risk_10":0.345,"risk_13":0.356,"risk_avg":0.41,"risk_clear":0.445,"label_01":"C.8\n0.46","label_04":"C.8\n0.46","label_07":"C.8\n0.43","label_10":"C.8\n0.34","label_13":"C.8\n0.36","label_avg":"C.8\n0.41","label_clear":"C.8\n0.45","lst_01":27.7,"lst_04":28.2,"lst_07":24.3,"lst_10":8.6,"lst_13":16.2},"geometry":{"type":"Polygon","coordinates":[[[7.66206,45.04671],[7.66678,45.04395],[7.67331,45.05443],[7.67715,45.05797],[7.6801,45.0623],[7.69207,45.058],[7.69516,45.06171],[7.7001,45.06538],[7.70827,45.06827],[7.71186,45.06376],[7.71296,45.06401],[7.71546,45.06302],[7.71595,45.06082],[7.71801,45.05894],[7.71949,45.0586],[7.72136,45.05655],[7.72157,45.05521],[7.72282,45.05423],[7.72244,45.05345],[7.72041,45.05325],[7.722,45.05197],[7.72184,45.05118],[7.72069,45.05073],[7.72269,45.04666],[7.72259,45.04431],[7.72127,45.04374],[7.72126,45.0422],[7.72367,45.0421],[7.72475,45.04072],[7.72623,45.04008],[7.72595,45.03837],[7.72683,45.03792],[7.73396,45.0391],[7.72259,45.0312],[7.70811,45.02695],[7.70765,45.02392],[7.70034,45.02403],[7.69963,45.02331],[7.69566,45.02294],[7.68993,45.02464],[7.68512,45.024],[7.68244,45.02194],[7.68087,45.01864],[7.67779,45.01621],[7.67056,45.01709],[7.65889,45.01626],[7.65797,45.01938],[7.65043,45.02189],[7.64791,45.01751],[7.64356,45.01846],[7.64014,45.02107],[7.63507,45.02282],[7.66206,45.04671]]]}}]}